{"type": "FeatureCollection", "name": "chicoutimi_12_zones", "crs": {"type": "name", "properties": {"name": "urn:ogc:def:crs:OGC:1.3:CRS84"}}, "features": [{"type": "Feature", "properties": {"id": 1, "zone_id": 1}, "geometry": {"type": "MultiPolygon", "coordinates": [[[[-71.26980900000001, 48.302101], [-71.23438006764226, 48.338798752762834], [-71.17331433846121, 48.30711165358671], [-71.16847758212212, 48.28116396839465], [-71.2409199193537, 48.23341769525162], [-71.248153, 48.237181], [-71.2618485, 48.2437348], [-71.3165225, 48.250633900000004], [-71.26980900000001, 48.302101]]]]}}, {"type": "Feature", "properties": {"id": 2, "zone_id": 2}, "geometry": {"type": "MultiPolygon", "coordinates": [[[[-71.223743, 48.349803800000004], [-71.2225843, 48.35097309999999], [-71.2218118, 48.35085900000001], [-71.220696, 48.3520996], [-71.2086583, 48.3466379], [-71.1832359, 48.372992200000006], [-71.1847477, 48.3736907], [-71.1766188, 48.3812481], [-71.1701982, 48.38729450000001], [-71.1698938, 48.38721249999999], [-71.1565363, 48.3836123], [-71.14686208715116, 48.392622018492744], [-71.10025342521051, 48.37520550169175], [-71.10866381207816, 48.33194548244267], [-71.17331433846121, 48.30711165358671], [-71.23438006764226, 48.338798752762834], [-71.223743, 48.349803800000004]]]]}}, {"type": "Feature", "properties": {"id": 3, "zone_id": 3}, "geometry": {"type": "MultiPolygon", "coordinates": [[[[-71.1074695, 48.235175600000005], [-71.1516855, 48.18772640000001], [-71.1893361, 48.206551100000006], [-71.1895311, 48.20665269999999], [-71.195781, 48.209908299999995], [-71.2409199193537, 48.23341769525162], [-71.16847758212212, 48.28116396839465], [-71.09445981369704, 48.24771664734959], [-71.1074695, 48.235175600000005]]]]}}, {"type": "Feature", "properties": {"id": 0, "zone_id": 4}, "geometry": {"type": "MultiPolygon", "coordinates": [[[[-71.1611295, 48.45052480000001], [-71.1676097, 48.453115], [-71.176343, 48.45496510000002], [-71.1789179, 48.45509310000001], [-71.1876167, 48.45403339999999], [-71.1895207, 48.457321999999984], [-71.1897326, 48.4575532], [-71.1905694, 48.45805130000001], [-71.1913647, 48.45848800000001], [-71.1928318, 48.458986], [-71.1934635, 48.459136300000004], [-71.1940616, 48.45940310000002], [-71.1950299, 48.459646800000016], [-71.19548590000001, 48.459818399999996], [-71.1957179, 48.45991800000001], [-71.1959915, 48.4602151], [-71.1962208, 48.46036540000001], [-71.1964944, 48.46053969999999], [-71.1969772, 48.46066600000001], [-71.1977389, 48.46071309999999], [-71.1982057, 48.4607184], [-71.1986603, 48.460668600000005], [-71.1991726, 48.46064200000001], [-71.1999826, 48.4606944], [-71.2007135, 48.460808300000004], [-71.2008101, 48.46087229999999], [-71.2008557, 48.46092569999999], [-71.2008825, 48.460975499999996], [-71.2008423, 48.46112130000001], [-71.20057140000002, 48.461471700000004], [-71.2004989, 48.4618861], [-71.2004641, 48.462021299999996], [-71.2003675, 48.46209420000001], [-71.2002146, 48.4621583], [-71.1998042, 48.46234680000001], [-71.1995709, 48.46247480000001], [-71.1994904, 48.46254950000001], [-71.199414, 48.4626509], [-71.1993831, 48.4628679], [-71.1994904, 48.46312050000001], [-71.1998954, 48.4636149], [-71.2001207, 48.46386040000001], [-71.2001985, 48.46409870000001], [-71.2001985, 48.4643299], [-71.2000805, 48.46507510000001], [-71.2000269, 48.46534190000001], [-71.1998418, 48.46556060000001], [-71.19935900000002, 48.4659679], [-71.1992088, 48.46610129999999], [-71.1991498, 48.4662009], [-71.1992115, 48.466336000000005], [-71.1993188, 48.46655660000001], [-71.1994958, 48.46667480000001], [-71.1999008, 48.4669069], [-71.2000322, 48.46713990000001], [-71.200106, 48.46732930000002], [-71.2002575, 48.4677766], [-71.2002066, 48.46797039999999], [-71.2000483, 48.46812510000001], [-71.1999679, 48.4681767], [-71.1997519, 48.46819270000001], [-71.1994395, 48.46813050000001], [-71.1990613, 48.46791350000001], [-71.1989795, 48.46788149999999], [-71.1987689, 48.4678886], [-71.1986227, 48.46794640000001], [-71.1985718, 48.468036200000014], [-71.1985731, 48.46820870000001], [-71.1986241, 48.46832429999999], [-71.1987153, 48.4684026], [-71.1988762, 48.46855460000001], [-71.198954, 48.4687191], [-71.1986844, 48.468883599999984], [-71.1984175, 48.469057899999996], [-71.1980514, 48.469132600000016], [-71.1975861, 48.4693149], [-71.1971971, 48.469494499999996], [-71.1968672, 48.46974350000001], [-71.1966419, 48.469946200000024], [-71.1961564, 48.4700582], [-71.1956227, 48.4701809], [-71.1953947, 48.47038720000001], [-71.1951184, 48.4705526], [-71.1944693, 48.4705668], [-71.1942574, 48.470557899999996], [-71.1940375, 48.470373], [-71.1939436, 48.47028760000001], [-71.1937317, 48.4702734], [-71.19346620000002, 48.4703766], [-71.1930665, 48.47063620000001], [-71.1929217, 48.4708069], [-71.1929002, 48.471064800000015], [-71.1928949, 48.47123009999999], [-71.1927956, 48.4714062], [-71.1926562, 48.4715129], [-71.1924657, 48.47155729999999], [-71.1921519, 48.4716231], [-71.19194, 48.4717636], [-71.1917791, 48.471888099999994], [-71.191197, 48.4725016], [-71.1911568, 48.4726154], [-71.1911675, 48.4727221], [-71.1912346, 48.47288930000001], [-71.1913741, 48.47309380000001], [-71.1914358, 48.47315070000001], [-71.1917549, 48.47318979999999], [-71.1919615, 48.473246700000004], [-71.1920446, 48.47333029999999], [-71.1920178, 48.47342810000001], [-71.1919212, 48.4737464], [-71.1917362, 48.47412159999999], [-71.191771, 48.47433140000001], [-71.1918381, 48.474491400000005], [-71.1919507, 48.47455370000001], [-71.1923638, 48.4746604], [-71.1925837, 48.4748026], [-71.1926052, 48.474964400000005], [-71.1925086, 48.47522049999999], [-71.1923128, 48.4753787], [-71.1919963, 48.475508500000004], [-71.1913419, 48.4757486], [-71.1911058, 48.475776999999994], [-71.1908108, 48.475825], [-71.1905935, 48.4759264], [-71.1904889, 48.47610420000001], [-71.1903253, 48.47647579999999], [-71.1902583, 48.4768332], [-71.190277, 48.477126599999984], [-71.1903602, 48.4772635], [-71.19065520000001, 48.477516], [-71.1909476, 48.4778716], [-71.191079, 48.47822899999999], [-71.1917496, 48.479514500000015], [-71.19212240000002, 48.47993240000001], [-71.1924255, 48.4801119], [-71.1924496, 48.4802489], [-71.1924174, 48.4803911], [-71.1922056, 48.48048179999999], [-71.1915162, 48.48065960000001], [-71.1913446, 48.48089430000001], [-71.1912239, 48.48097599999999], [-71.1897299, 48.48155919999999], [-71.189239, 48.48175299999999], [-71.1889628, 48.481827700000004], [-71.1886758, 48.48185430000002], [-71.187906, 48.48185790000001], [-71.1879159, 48.48189410000001], [-71.1875224, 48.48186150000001], [-71.1867808, 48.4819361], [-71.1862779, 48.48206950000001], [-71.1856449, 48.4823202], [-71.1853525, 48.48247219999999], [-71.1852667, 48.48249350000001], [-71.1850548, 48.48252279999999], [-71.18464710000002, 48.4824837], [-71.1841884, 48.4823753], [-71.1836627, 48.48215129999999], [-71.1834589, 48.48212460000001], [-71.1832389, 48.48216899999999], [-71.1826301, 48.482361000000004], [-71.1823645, 48.4824659], [-71.1823136, 48.482558400000016], [-71.1823082, 48.4826917], [-71.1824879, 48.4829104], [-71.18261130000002, 48.48317000000001], [-71.1826435, 48.483377999999995], [-71.1825603, 48.483433100000006], [-71.1823055, 48.483456200000006], [-71.1819756, 48.48346330000001], [-71.18178790000002, 48.483479300000006], [-71.1817047, 48.48353439999999], [-71.1814579, 48.48377089999998], [-71.1813024, 48.48386690000001], [-71.1809805, 48.4838989], [-71.1805272, 48.48389], [-71.18032070000001, 48.48393620000001], [-71.1799666, 48.4840394], [-71.1797574, 48.4842847], [-71.1796716, 48.4845016], [-71.17962870000001, 48.4848518], [-71.179516, 48.485001200000006], [-71.1792237, 48.48518070000001], [-71.1785156, 48.48541010000002], [-71.1782581, 48.485466900000006], [-71.1780837, 48.4855309], [-71.1779228, 48.48563049999999], [-71.1778933, 48.4857407], [-71.1780676, 48.48592029999998], [-71.1782983, 48.48600380000002], [-71.1787114, 48.486174500000004], [-71.1789259, 48.48622780000001], [-71.179103, 48.486505199999996], [-71.1792237, 48.48657980000001], [-71.1793873, 48.4866225], [-71.1797065, 48.48673629999999], [-71.1797641, 48.486786099999996], [-71.1805514, 48.4874829], [-71.1813238, 48.487801100000006], [-71.181879, 48.487895399999985], [-71.18212100000001, 48.488029], [-71.1022449, 48.47302400000002], [-71.1005960853405, 48.47267800845381], [-71.10492380755252, 48.45162919079181], [-71.1245298112255, 48.44222369533643], [-71.1611295, 48.45052480000001]]]]}}, {"type": "Feature", "properties": {"id": 4, "zone_id": 5}, "geometry": {"type": "MultiPolygon", "coordinates": [[[[-71.09445981369704, 48.24771664734959], [-71.16847758212212, 48.28116396839465], [-71.17331433846121, 48.30711165358671], [-71.10866381207816, 48.33194548244267], [-71.03984080723757, 48.300281364405315], [-71.09445981369704, 48.24771664734959]]]]}}, {"type": "Feature", "properties": {"id": 5, "zone_id": 6}, "geometry": {"type": "MultiPolygon", "coordinates": [[[[-71.1468562, 48.3926275], [-71.1458465, 48.393576599999996], [-71.1445219, 48.3948217], [-71.14299720000001, 48.396273499999985], [-71.1424934, 48.3967532], [-71.1419067, 48.3973119], [-71.1376632, 48.4013524], [-71.1375558, 48.40145940000001], [-71.1374858, 48.40152909999999], [-71.1362272, 48.40273280000002], [-71.13526270000001, 48.403653899999995], [-71.1345583, 48.404326700000006], [-71.1342117, 48.4046175], [-71.1336164, 48.405117], [-71.1333513, 48.4053678], [-71.1332761, 48.405438900000014], [-71.1313119, 48.4072971], [-71.1310603, 48.40753509999999], [-71.1309119, 48.4076755], [-71.1292576, 48.40924040000001], [-71.1276374, 48.4105754], [-71.128537, 48.410816799999985], [-71.1321718, 48.411792199999994], [-71.1350222, 48.4126031], [-71.1359043, 48.412853999999996], [-71.1370491, 48.4134265], [-71.1398406, 48.41566439999999], [-71.1397319, 48.41577409999999], [-71.138796, 48.416718700000004], [-71.1369571, 48.41857449999999], [-71.1364638, 48.41907229999999], [-71.1362807, 48.419236500000004], [-71.134752, 48.42060740000001], [-71.1337745, 48.4214841], [-71.1328928, 48.422274800000004], [-71.132258, 48.4228441], [-71.1317081, 48.42333709999998], [-71.1308477, 48.424108600000004], [-71.13075950000001, 48.42418769999999], [-71.1279011, 48.42675090000001], [-71.1268954, 48.42765270000002], [-71.1259368, 48.4285123], [-71.1248118, 48.429521], [-71.1264994, 48.43008440000001], [-71.1297361, 48.4311651], [-71.1259675, 48.435405900000006], [-71.1257847, 48.4356115], [-71.1245861, 48.436960200000016], [-71.12455490000002, 48.436996799999996], [-71.1241646, 48.43745540000002], [-71.1241296, 48.437496499999995], [-71.122098, 48.44167160000001], [-71.1245298112255, 48.44222369533643], [-71.10492380755252, 48.45162919079181], [-71.05132229598048, 48.42475766384535], [-71.05106926295268, 48.41989726931399], [-71.09316297522467, 48.37701630682977], [-71.10025342521051, 48.37520550169175], [-71.14686208715116, 48.392622018492744], [-71.1468562, 48.3926275]]]]}}, {"type": "Feature", "properties": {"id": 6, "zone_id": 7}, "geometry": {"type": "MultiPolygon", "coordinates": [[[[-71.0987839, 48.4722977], [-71.0743669, 48.4671736], [-71.0651034, 48.4879028], [-71.056904, 48.486257000000016], [-71.02870764169293, 48.48018294180667], [-71.02521647679369, 48.44151137337979], [-71.05132229598048, 48.42475766384535], [-71.10492380755252, 48.45162919079181], [-71.1005960853405, 48.47267800845381], [-71.0987839, 48.4722977]]]]}}, {"type": "Feature", "properties": {"id": 7, "zone_id": 8}, "geometry": {"type": "MultiPolygon", "coordinates": [[[[-70.9007941, 48.43031160000001], [-70.9229539, 48.4106101], [-70.9349013, 48.399665600000006], [-70.9562754, 48.380108], [-70.9575808, 48.37891270000001], [-70.958476, 48.37804710000001], [-70.96642570000002, 48.370954], [-70.9723501, 48.3738025], [-70.97448938416014, 48.37483106901983], [-70.98413603984964, 48.39027774066086], [-70.96949916590502, 48.438293048378156], [-70.95268261331289, 48.44622619868544], [-70.9007941, 48.43031160000001]]]]}}, {"type": "Feature", "properties": {"id": 8, "zone_id": 9}, "geometry": {"type": "MultiPolygon", "coordinates": [[[[-71.0183926, 48.35605110000001], [-71.021294, 48.3532276], [-71.0218003, 48.352734899999994], [-71.0219949, 48.352545500000005], [-71.02329420000001, 48.351281099999994], [-71.0113335, 48.345439899999995], [-71.0154139, 48.341482299999996], [-71.0171271, 48.33982050000001], [-71.0048104, 48.334229099999995], [-71.0136509, 48.3256695], [-71.0010767, 48.31976259999999], [-71.0213897, 48.300244700000015], [-71.0266906, 48.3026914], [-71.0338058, 48.306080800000004], [-71.03984080723757, 48.300281364405315], [-71.10866381207816, 48.33194548244267], [-71.10025342521051, 48.37520550169175], [-71.09316297522467, 48.37701630682977], [-71.01413803933015, 48.36019118487401], [-71.0183926, 48.35605110000001]]]]}}, {"type": "Feature", "properties": {"id": 9, "zone_id": 10}, "geometry": {"type": "MultiPolygon", "coordinates": [[[[-71.0151876, 48.47726730000001], [-71.0117821, 48.4865506], [-70.978222, 48.4811418], [-70.97830210000001, 48.48008879999999], [-70.9788305, 48.4795608], [-70.9789968, 48.478824700000004], [-70.9789753, 48.47849039999999], [-70.979088, 48.47831260000001], [-70.9795171, 48.478152599999994], [-70.9798577, 48.477459100000004], [-70.9803915, 48.47574500000001], [-70.9807348, 48.47542850000001], [-70.981274, 48.475112], [-70.9815931, 48.47466570000001], [-70.9815395, 48.47408780000001], [-70.9811828, 48.4736166], [-70.9812257, 48.473207599999995], [-70.9814966, 48.472675900000006], [-70.9817138, 48.47215839999999], [-70.9814134, 48.470961599999995], [-70.9813464, 48.47031430000001], [-70.9814349, 48.46917260000001], [-70.9817407, 48.46890049999999], [-70.9823951, 48.46857690000001], [-70.9830603, 48.4684364], [-70.9841707, 48.46815720000001], [-70.9855011, 48.4674547], [-70.9870487, 48.466448099999994], [-70.9886634, 48.4650502], [-70.9887332, 48.46457710000002], [-70.9883255, 48.463922600000004], [-70.9845382, 48.46273810000001], [-70.9839642, 48.46230769999999], [-70.9837925, 48.4618168], [-70.9837799, 48.46147650000001], [-70.9833258, 48.459675299999994], [-70.9825695, 48.4587325], [-70.982945, 48.45433890000001], [-70.95902, 48.44816750000001], [-70.95268261331289, 48.44622619868544], [-70.96949916590502, 48.438293048378156], [-71.02521647679369, 48.44151137337979], [-71.02870764169293, 48.48018294180667], [-71.0151876, 48.47726730000001]]]]}}, {"type": "Feature", "properties": {"id": 10, "zone_id": 11}, "geometry": {"type": "MultiPolygon", "coordinates": [[[[-70.9765699, 48.3758313], [-70.9849372, 48.3798539], [-70.98653, 48.3806196], [-70.9891789, 48.381892999999984], [-70.9909531, 48.38274579999999], [-70.9940086, 48.37977390000001], [-70.9985385, 48.3753677], [-70.9999542, 48.373990600000006], [-71.0014799, 48.3725064], [-71.0028497, 48.371173799999994], [-71.0039162, 48.3698536], [-71.0115097, 48.362748499999995], [-71.0124243, 48.3618585], [-71.0127546, 48.3615372], [-71.0132862, 48.36102000000001], [-71.01413803933015, 48.36019118487401], [-71.09316297522467, 48.37701630682977], [-71.05106926295268, 48.41989726931399], [-70.98413603984964, 48.39027774066086], [-70.97448938416014, 48.37483106901983], [-70.9765699, 48.3758313]]]]}}, {"type": "Feature", "properties": {"id": 11, "zone_id": 12}, "geometry": {"type": "MultiPolygon", "coordinates": [[[[-71.05132229598048, 48.42475766384535], [-71.02521647679369, 48.44151137337979], [-70.96949916590502, 48.438293048378156], [-70.98413603984964, 48.39027774066086], [-71.05106926295268, 48.41989726931399], [-71.05132229598048, 48.42475766384535]]]]}}]}