{"type": "FeatureCollection", "name": "quartiers_dans_zones", "crs": {"type": "name", "properties": {"name": "urn:ogc:def:crs:OGC:1.3:CRS84"}}, "features": [{"type": "Feature", "properties": {"name": "Chicoutimi", "kind": "suburb"}, "geometry": {"type": "Point", "coordinates": [-71.0637121, 48.42863520000001]}}, {"type": "Feature", "properties": {"name": "Laterrière-Bassin", "kind": "quarter"}, "geometry": {"type": "Point", "coordinates": [-71.1331396, 48.3175611]}}, {"type": "Feature", "properties": {"name": "Portage-des-Roches-Nord", "kind": "hamlet"}, "geometry": {"type": "Point", "coordinates": [-71.1818437, 48.3036561]}}, {"type": "Feature", "properties": {"name": "Portage-des-Roches-Sud", "kind": "hamlet"}, "geometry": {"type": "Point", "coordinates": [-71.1974524, 48.30361349999998]}}, {"type": "Feature", "properties": {"name": "Valin", "kind": "hamlet"}, "geometry": {"type": "Point", "coordinates": [-70.9965622, 48.46370230000001]}}, {"type": "Feature", "properties": {"name": "Poste-Saint-Martin", "kind": "hamlet"}, "geometry": {"type": "Point", "coordinates": [-70.956269, 48.430458099999996]}}, {"type": "Feature", "properties": {"name": "Le Bassin", "kind": "neighbourhood"}, "geometry": {"type": "Point", "coordinates": [-71.075584, 48.4246347]}}, {"type": "Feature", "properties": {"name": "Saint-Nom-de-Jésus", "kind": "neighbourhood"}, "geometry": {"type": "Point", "coordinates": [-71.0386125, 48.429181700000015]}}, {"type": "Feature", "properties": {"name": "Murdock", "kind": "neighbourhood"}, "geometry": {"type": "Point", "coordinates": [-71.0410801, 48.4165509]}}, {"type": "Feature", "properties": {"name": "Saint-Isidore", "kind": "neighbourhood"}, "geometry": {"type": "Point", "coordinates": [-71.0247079, 48.429637299999996]}}, {"type": "Feature", "properties": {"name": "Notre-Dame-du-Saguenay", "kind": "neighbourhood"}, "geometry": {"type": "Point", "coordinates": [-71.0357371, 48.4233294]}}, {"type": "Feature", "properties": {"name": "Centre-ville de Chicoutimi", "kind": "neighbourhood"}, "geometry": {"type": "Point", "coordinates": [-71.0619091, 48.42744939999999]}}, {"type": "Feature", "properties": {"name": "Des Oiseaux", "kind": "neighbourhood"}, "geometry": {"type": "Point", "coordinates": [-71.0547602, 48.397685499999994]}}, {"type": "Feature", "properties": {"name": "Des Écrivains", "kind": "neighbourhood"}, "geometry": {"type": "Point", "coordinates": [-71.0886204, 48.3981129]}}, {"type": "Feature", "properties": {"name": "Des Vingt-et-Un", "kind": "neighbourhood"}, "geometry": {"type": "Point", "coordinates": [-71.0759389, 48.39979399999999]}}, {"type": "Feature", "properties": {"name": "Hamel-Fradette-Gobeil", "kind": "neighbourhood"}, "geometry": {"type": "Point", "coordinates": [-71.0241577, 48.4218507]}}, {"type": "Feature", "properties": {"name": "Rivière-du-Moulin", "kind": "quarter"}, "geometry": {"type": "Point", "coordinates": [-71.0244147, 48.427192300000016]}}, {"type": "Feature", "properties": {"name": "Pulperie de Chicoutimi", "kind": "neighbourhood"}, "geometry": {"type": "Point", "coordinates": [-71.0811791, 48.42229180000001]}}, {"type": "Feature", "properties": {"name": "Université du Québec à Chicoutimi (UQAC)", "kind": "neighbourhood"}, "geometry": {"type": "Point", "coordinates": [-71.05253440000001, 48.420046899999996]}}, {"type": "Feature", "properties": {"name": "Place des Copains", "kind": "neighbourhood"}, "geometry": {"type": "Point", "coordinates": [-71.1172362, 48.3835679]}}, {"type": "Feature", "properties": {"name": "Chicoutimi-Nord", "kind": "quarter"}, "geometry": {"type": "Point", "coordinates": [-71.0750109, 48.43820530000001]}}, {"type": "Feature", "properties": {"name": "Laterrière", "kind": "quarter"}, "geometry": {"type": "Point", "coordinates": [-71.1133582, 48.307509700000004]}}, {"type": "Feature", "properties": {"name": "Terres-Rompues", "kind": "hamlet"}, "geometry": {"type": "Point", "coordinates": [-71.1605001, 48.4536594]}}, {"type": "Feature", "properties": {"name": "Canton-Tremblay", "kind": "quarter"}, "geometry": {"type": "Point", "coordinates": [-71.0173725, 48.45311140000001]}}]}