{
"type": "FeatureCollection",
"xy_coordinate_resolution": 1e-06,
"features": [
{ "type": "Feature", "properties": { "_idx": 0, "_num": 1, "parent_zone": 5, "color": "#e63946", "n_quartiers": 0, "n_rues": 40 }, "geometry": { "type": "MultiPolygon", "coordinates": [ [ [ [ -71.111622, 48.414897 ], [ -71.124408, 48.401651 ], [ -71.086225, 48.405182 ], [ -71.077632, 48.421065 ], [ -71.111622, 48.414897 ] ] ] ] } },
{ "type": "Feature", "properties": { "_idx": 1, "_num": 2, "parent_zone": 5, "color": "#f4a261", "n_quartiers": 4, "n_rues": 65 }, "geometry": { "type": "MultiPolygon", "coordinates": [ [ [ [ -71.007133, 48.430869 ], [ -71.039412, 48.439413 ], [ -71.0425, 48.432211 ], [ -71.017859, 48.412446 ], [ -71.006079, 48.422093 ], [ -71.007133, 48.430869 ] ] ] ] } },
{ "type": "Feature", "properties": { "_idx": 2, "_num": 3, "parent_zone": 5, "color": "#e9c46a", "n_quartiers": 1, "n_rues": 50 }, "geometry": { "type": "MultiPolygon", "coordinates": [ [ [ [ -71.060398, 48.444961 ], [ -71.078061, 48.449626 ], [ -71.090813, 48.436437 ], [ -71.077475, 48.430671 ], [ -71.070371, 48.433097 ], [ -71.060398, 48.444961 ] ] ] ] } },
{ "type": "Feature", "properties": { "_idx": 3, "_num": 4, "parent_zone": 5, "color": "#2a9d8f", "n_quartiers": 1, "n_rues": 51 }, "geometry": { "type": "MultiPolygon", "coordinates": [ [ [ [ -71.051216, 48.385103 ], [ -71.0299, 48.402581 ], [ -71.05241, 48.407102 ], [ -71.068417, 48.399385 ], [ -71.06838, 48.386829 ], [ -71.051216, 48.385103 ] ] ] ] } },
{ "type": "Feature", "properties": { "_idx": 4, "_num": 5, "parent_zone": 5, "color": "#264653", "n_quartiers": 1, "n_rues": 58 }, "geometry": { "type": "MultiPolygon", "coordinates": [ [ [ [ -71.090813, 48.436437 ], [ -71.111622, 48.414897 ], [ -71.077632, 48.421065 ], [ -71.076253, 48.421654 ], [ -71.077475, 48.430671 ], [ -71.090813, 48.436437 ] ] ] ] } },
{ "type": "Feature", "properties": { "_idx": 5, "_num": 6, "parent_zone": 5, "color": "#8338ec", "n_quartiers": 2, "n_rues": 46 }, "geometry": { "type": "MultiPolygon", "coordinates": [ [ [ [ -71.0299, 48.402581 ], [ -71.020688, 48.410129 ], [ -71.052545, 48.422487 ], [ -71.059667, 48.417063 ], [ -71.05241, 48.407102 ], [ -71.0299, 48.402581 ] ] ] ] } },
{ "type": "Feature", "properties": { "_idx": 6, "_num": 7, "parent_zone": 5, "color": "#3a86ff", "n_quartiers": 0, "n_rues": 51 }, "geometry": { "type": "MultiPolygon", "coordinates": [ [ [ [ -71.039412, 48.439413 ], [ -71.060398, 48.444961 ], [ -71.070371, 48.433097 ], [ -71.049957, 48.427964 ], [ -71.0425, 48.432211 ], [ -71.039412, 48.439413 ] ] ] ] } },
{ "type": "Feature", "properties": { "_idx": 7, "_num": 8, "parent_zone": 5, "color": "#ff006e", "n_quartiers": 2, "n_rues": 80 }, "geometry": { "type": "MultiPolygon", "coordinates": [ [ [ [ -71.132511, 48.393252 ], [ -71.06838, 48.386829 ], [ -71.068417, 48.399385 ], [ -71.076365, 48.403868 ], [ -71.086225, 48.405182 ], [ -71.124408, 48.401651 ], [ -71.132511, 48.393252 ] ] ] ] } },
{ "type": "Feature", "properties": { "_idx": 8, "_num": 9, "parent_zone": 5, "color": "#06a77d", "n_quartiers": 1, "n_rues": 35 }, "geometry": { "type": "MultiPolygon", "coordinates": [ [ [ [ -71.020688, 48.410129 ], [ -71.017859, 48.412446 ], [ -71.0425, 48.432211 ], [ -71.049957, 48.427964 ], [ -71.052545, 48.422487 ], [ -71.020688, 48.410129 ] ] ] ] } },
{ "type": "Feature", "properties": { "_idx": 9, "_num": 10, "parent_zone": 5, "color": "#ef476f", "n_quartiers": 0, "n_rues": 45 }, "geometry": { "type": "MultiPolygon", "coordinates": [ [ [ [ -71.076365, 48.403868 ], [ -71.068417, 48.399385 ], [ -71.05241, 48.407102 ], [ -71.059667, 48.417063 ], [ -71.068536, 48.418052 ], [ -71.076365, 48.403868 ] ] ] ] } },
{ "type": "Feature", "properties": { "_idx": 10, "_num": 11, "parent_zone": 5, "color": "#118ab2", "n_quartiers": 3, "n_rues": 74 }, "geometry": { "type": "MultiPolygon", "coordinates": [ [ [ [ -71.077475, 48.430671 ], [ -71.076253, 48.421654 ], [ -71.068536, 48.418052 ], [ -71.059667, 48.417063 ], [ -71.052545, 48.422487 ], [ -71.049957, 48.427964 ], [ -71.070371, 48.433097 ], [ -71.077475, 48.430671 ] ] ] ] } },
{ "type": "Feature", "properties": { "_idx": 11, "_num": 12, "parent_zone": 5, "color": "#ffd166", "n_quartiers": 0, "n_rues": 35 }, "geometry": { "type": "MultiPolygon", "coordinates": [ [ [ [ -71.086225, 48.405182 ], [ -71.076365, 48.403868 ], [ -71.068536, 48.418052 ], [ -71.076253, 48.421654 ], [ -71.077632, 48.421065 ], [ -71.086225, 48.405182 ] ] ] ] } }
]
}
